FENGYUN 2H              
1 43491U 18050A   26182.52896306 -.00000120  00000+0  00000+0 0  9995
2 43491   3.0669  78.9122 0001769 121.5363 348.8645  1.00269605 29581
METOP-C                 
1 43689U 18087A   26182.56783360  .00000107  00000+0  68678-4 0  9997
2 43689  98.6638 241.9082 0002140 111.1110 249.0296 14.21515931396878
GEO-KOMPSAT-2A          
1 43823U 18100A   26182.46742068 -.00000334  00000+0  00000+0 0  9995
2 43823   0.0517 181.9048 0002589 289.1691 104.9700  1.00255173 27774
METEOR-M2 2             
1 44387U 19038A   26182.57486981  .00000196  00000+0  10484-3 0  9999
2 44387  98.9145 170.0727 0001469  26.1189 334.0063 14.24370233363342
ARKTIKA-M 1             
1 47719U 21016A   26180.95192977 -.00000281  00000+0  00000+0 0  9994
2 47719  63.2520  55.7907 7292817 269.9910  14.5481  2.00617895 39040
FENGYUN 3E              
1 49008U 21062A   26182.57694546 -.00000067  00000+0 -10676-4 0  9995
2 49008  98.7488 185.8244 0002702  62.3164 297.8286 14.19904826258621
GOES 18                 
1 51850U 22021A   26182.57159799  .00000107  00000+0  00000+0 0  9993
2 51850   0.0072 256.6923 0000573 234.7791 216.9233  1.00271770  6738
NOAA 21 (JPSS-2)        
1 54234U 22150A   26182.62451974  .00000052  00000+0  45119-4 0  9995
2 54234  98.7060 121.1712 0002409 128.7762 231.3629 14.19539033188598
METEOSAT-12 (MTG-I1)    
1 54743U 22170C   26182.15671559  .00000004  00000+0  00000+0 0  9995
2 54743   0.7533  25.1015 0003663  73.6731 236.5905  1.00276135 13113
TIANMU-1 03             
1 55973U 23039A   26182.59948175  .00018625  00000+0  36161-3 0  9994
2 55973  97.5231 357.1366 0003709  63.2554 296.9075 15.47692679183065
TIANMU-1 04             
1 55974U 23039B   26182.64796123  .00019662  00000+0  37351-3 0  9999
2 55974  97.5172 356.3418 0004119  56.7680 303.3965 15.48308990183086
TIANMU-1 05             
1 55975U 23039C   26182.64560552  .00018312  00000+0  35646-3 0  9991
2 55975  97.5217 356.7940 0003771  79.9225 280.2450 15.47619948183052
TIANMU-1 06             
1 55976U 23039D   26182.65225475  .00018389  00000+0  35074-3 0  9994
2 55976  97.5223 357.4514 0003992  75.1285 285.0407 15.48207080183083
FENGYUN 3G              
1 56232U 23055A   26182.51985154  .00028728  00000+0  45253-3 0  9998
2 56232  49.9928 272.1398 0007301 356.2223   3.8688 15.53260173182239
METEOR-M2 3             
1 57166U 23091A   26182.64276144  .00000014  00000+0  24800-4 0  9995
2 57166  98.6075 237.3249 0004980 120.6691 239.4979 14.24048017156576
TIANMU-1 07             
1 57399U 23101A   26182.62042461  .00007433  00000+0  25864-3 0  9998
2 57399  97.2581 232.9579 0004328  92.3547 267.8189 15.29974372163854
TIANMU-1 08             
1 57400U 23101B   26182.58702616  .00007436  00000+0  25865-3 0  9995
2 57400  97.2570 232.6938 0005517  80.8543 279.3321 15.29979361163848
TIANMU-1 09             
1 57401U 23101C   26182.57013001  .00007955  00000+0  27622-3 0  9997
2 57401  97.2528 232.0857 0004907  95.1542 265.0259 15.30015526163844
TIANMU-1 10             
1 57402U 23101D   26182.60343998  .00007940  00000+0  27589-3 0  9999
2 57402  97.2608 233.1835 0006371  89.5815 270.6156 15.29988517163844
FENGYUN 3F              
1 57490U 23111A   26182.63098687  .00000046  00000+0  42237-4 0  9990
2 57490  98.6831 252.3704 0001497  83.1517 276.9830 14.19941460150911
ARKTIKA-M 2             
1 58584U 23198A   26180.72239164  .00000148  00000+0  00000+0 0  9995
2 58584  63.2199 152.9641 6905877 267.3845  18.7575  2.00610643 18573
TIANMU-1 11             
1 58645U 23205A   26182.60056259  .00006509  00000+0  24715-3 0  9993
2 58645  97.3437 203.9318 0007304 322.8275  37.2457 15.27142281139725
TIANMU-1 12             
1 58646U 23205B   26182.57148287  .00006230  00000+0  23749-3 0  9990
2 58646  97.3426 203.6556 0005364 301.0041  59.0671 15.27040267139708
TIANMU-1 13             
1 58647U 23205C   26182.60481792  .00007008  00000+0  26739-3 0  9992
2 58647  97.3454 203.9637 0004949 275.3207  84.7468 15.26963894139706
TIANMU-1 14             
1 58648U 23205D   26182.58960228  .00006848  00000+0  26097-3 0  9994
2 58648  97.3390 203.1192 0005774 282.2773  77.7819 15.27008470139709
TIANMU-1 19             
1 58660U 23208A   26182.59426003  .00009465  00000+0  31080-3 0  9996
2 58660  97.4522 298.9699 0003579 257.2410 102.8432 15.31789787139530
TIANMU-1 20             
1 58661U 23208B   26182.62087372  .00009406  00000+0  29758-3 0  9997
2 58661  97.4465 299.6470 0005567 270.0134  90.0470 15.32979685139637
TIANMU-1 21             
1 58662U 23208C   26182.58732439  .00011857  00000+0  34762-3 0  9998
2 58662  97.4524 302.3565 0005729 260.0198 100.0399 15.35331734139777
TIANMU-1 22             
1 58663U 23208D   26182.58098306  .00008483  00000+0  28353-3 0  9997
2 58663  97.4518 298.8802 0002199 293.7551  66.3459 15.31256804139533
TIANMU-1 15             
1 58700U 24004A   26181.46716236  .00005379  00000+0  20673-3 0  9997
2 58700  97.4663   7.6584 0005527 295.8617  64.2051 15.26842605137800
TIANMU-1 16             
1 58701U 24004B   26182.63724622  .00006142  00000+0  23529-3 0  9998
2 58701  97.4610   8.0521 0004544 310.3661  49.7180 15.26894248137989
TIANMU-1 17             
1 58702U 24004C   26182.62271172  .00006093  00000+0  23345-3 0  9996
2 58702  97.4638   8.5278 0004170 318.6252  41.4671 15.26892246137975
TIANMU-1 18             
1 58703U 24004D   26182.59805596  .00006525  00000+0  25041-3 0  9991
2 58703  97.4656   8.7645 0003417 293.4961  66.5918 15.26811561137979
INSAT-3DS               
1 58990U 24033A   26182.45824060 -.00000145  00000+0  00000+0 0  9990
2 58990   0.0700  97.3054 0001452 354.8248  74.3916  1.00269654 47211
METEOR-M2 4             
1 59051U 24039A   26182.60354354  .00000006  00000+0  22175-4 0  9993
2 59051  98.7018 141.7208 0007994 122.7148 237.4802 14.22430940121315
GOES 19                 
1 60133U 24119A   26182.49836959 -.00000238  00000+0  00000+0 0  9994
2 60133   0.0101  80.9326 0000526  71.7609 231.0820  1.00271599  7106
MTG-S1                  
1 64723U 25143A   26182.15671559  .00000003  00000+0  00000+0 0  9996
2 64723   0.5929 341.8630 0002833 265.0195  88.2898  1.00272459  3554
METOP-SGA1              
1 65159U 25172A   26182.44536416  .00000048  00000+0  42813-4 0  9998
2 65159  98.6639 241.8713 0007842  12.7907 347.3467 14.19817298 45814
FENGYUN 3H              
1 65815U 25219A   26182.27522189  .00000050  00000+0  44168-4 0  9990
2 65815  98.6769 122.7705 0001419  66.7567 293.3759 14.19922785 39387
OSCAR 7 (AO-7)          
1 07530U 74089B   26182.33643674 -.00000038  00000+0  51364-4 0  9992
2 07530 101.9899 195.7305 0012654 103.9193 269.9561 12.53698345362294
PHASE 3B (AO-10)        
1 14129U 83058B   26180.99416899 -.00000150  00000+0  00000+0 0  9998
2 14129  25.9232 217.4494 6006519 119.1882 313.2024  2.05871195295751
UOSAT 2 (UO-11)         
1 14781U 84021B   26182.45071382  .00001660  00000+0  17428-3 0  9992
2 14781  97.8066 147.8667 0008734 129.4029 230.7964 14.90820365259259
LUSAT (LO-19)           
1 20442U 90005G   26182.34499695  .00000134  00000+0  64527-4 0  9999
2 20442  98.8845 204.5405 0011921 159.5755 200.5908 14.34127457904428
EYESAT A (AO-27)        
1 22825U 93061C   26182.61394035  .00000113  00000+0  59818-4 0  9997
2 22825  98.6876 250.0219 0009367  62.4356 297.7777 14.30946055709060
ITAMSAT (IO-26)         
1 22826U 93061D   26182.44924202  .00000125  00000+0  63903-4 0  9997
2 22826  98.6824 249.7763 0009693  47.4296 312.7703 14.31373320709350
RADIO ROSTO (RS15)      
1 23439U 94085A   26182.48361404 -.00000026  00000+0  47679-3 0  9990
2 23439  64.8180 280.0956 0156425   1.2311 358.8969 11.27583396297518
JAS-2 (FO-29)           
1 24278U 96046B   26182.50636289 -.00000026  00000+0  71340-5 0  9994
2 24278  98.5226  29.4160 0350813  59.3830 304.1415 13.53274940475100
TECHSAT 1B (GO-32)      
1 25397U 98043D   26182.46419188  .00000057  00000+0  44995-4 0  9996
2 25397  99.0073 175.5832 0001736 137.0286 223.1028 14.24431155453360
ISS (ZARYA)             
1 25544U 98067A   26182.50817465  .00006185  00000+0  11827-3 0  9996
2 25544  51.6311 229.1989 0004224 255.0896 104.9625 15.49503254573972
PCSAT (NO-44)           
1 26931U 01043C   26182.47759659  .00000097  00000+0  67175-4 0  9995
2 26931  67.0489 207.3102 0006018 265.5004  94.5410 14.31960694292491
SAUDISAT 1C (SO-50)     
1 27607U 02058C   26182.38338564  .00001035  00000+0  13912-3 0  9993
2 27607  64.5520  85.0626 0074919 259.8268  99.4382 14.83076563266566
CUTE-1 (CO-55)          
1 27844U 03031E   26182.50822858  .00000299  00000+0  14842-3 0  9990
2 27844  98.6736 190.8869 0010387 138.3809 221.8162 14.24344446193717
CUBESAT XI-IV (CO-57)   
1 27848U 03031J   26182.50387728  .00000247  00000+0  12755-3 0  9990
2 27848  98.6768 190.5840 0009878 155.7692 204.3953 14.23628338193413
MOZHAETS 4 (RS22)       
1 27939U 03042A   26182.61384719  .00000551  00000+0  93104-4 0  9998
2 27939  98.3465   7.3802 0010266 218.3407 231.4843 14.73490972217671
CUBESAT XI-V            
1 28895U 05043F   26181.38022833  .00001474  00000+0  23930-3 0  9996
2 28895  98.2997 337.2799 0014555 159.1785 201.0018 14.72666866103697
CUTE-1.7+APD II (CO-65) 
1 32785U 08021C   26182.63323903  .00006548  00000+0  41134-3 0  9992
2 32785  97.8279 164.3537 0008246 351.3576   8.7509 15.09589272987379
SEEDS II (CO-66)        
1 32791U 08021J   26182.49590807  .00021762  00000+0  67899-3 0  9993
2 32791  97.7518 181.0814 0001306 190.4389 169.6825 15.33239854989486
YUBILEINY (RS30)        
1 32953U 08025A   26182.58451263 -.00000020  00000+0 -21249-3 0  9994
2 32953  82.5042 346.4825 0018502 280.5899  79.3096 12.43180063821489
KKS-1 (KISEKI)          
1 33499U 09002H   26182.49180833  .00001409  00000+0  17955-3 0  9997
2 33499  98.1183 105.1607 0006502 239.2060 120.8514 14.83160039938315
